{
  "type": "FeatureCollection",
  "features": [
    {
      "type": "Feature",
      "properties": {
        "OBJECTID": 2,
        "NAME": "Adrin Nazarian",
        "District": 2,
        "District_Name": "2 - Adrin Nazarian",
        "TOOLTIP": "Councilmember: Adrin Nazarian\\nDistrict: 2",
        "NLA_URL": "https://councildistrict2.lacity.gov/?nla_win=p,75,75&nla_target=1"
      },
      "geometry": {
        "type": "Polygon",
        "coordinates": [
          [
            [
              -118.33733140199489,
              34.22103826555708
            ],
            [
              -118.33959478865565,
              34.22096713681093
            ],
            [
              -118.33981423722118,
              34.224582288293014
            ],
            [
              -118.34419170331803,
              34.22451094540032
            ],
            [
              -118.34440043705774,
              34.22813348782865
            ],
            [
              -118.34871705222433,
              34.22826523405228
            ],
            [
              -118.34871669517794,
              34.22830864314592
            ],
            [
              -118.35251893375877,
              34.22846281283084
            ],
            [
              -118.35302874312138,
              34.228483482852575
            ],
            [
              -118.35540693910927,
              34.22852997934876
            ],
            [
              -118.35554584707543,
              34.228532694241274
            ],
            [
              -118.35629991159286,
              34.22854742624932
            ],
            [
              -118.35738723245449,
              34.228568661614226
            ],
            [
              -118.35794828577988,
              34.22857961500575
            ],
            [
              -118.35842676331312,
              34.22858895413295
            ],
            [
              -118.35850850994616,
              34.22859055022214
            ],
            [
              -118.3585656725609,
              34.22859166555599
            ],
            [
              -118.35857466795682,
              34.22859184084703
            ],
            [
              -118.3589828095808,
              34.22859980576824
            ],
            [
              -118.35921628073372,
              34.22860436082245
            ],
            [
              -118.35954726956813,
              34.22861081737132
            ],
            [
              -118.35973616313957,
              34.2286149845715
            ],
            [
              -118.35976054210344,
              34.228614977010615
            ],
            [
              -118.36076659019974,
              34.228634598888334
            ],
            [
              -118.36181298512913,
              34.22865499512258
            ],
            [
              -118.36260018068417,
              34.228666794958905
            ],
            [
              -118.36533820671082,
              34.22870778491993
            ],
            [
              -118.36180926388403,
              34.22496978523015
            ],
            [
              -118.35922560238065,
              34.222390605464405
            ],
            [
              -118.35943935616557,
              34.22201862692732
            ],
            [
              -118.35969244625723,
              34.22157820543489
            ],
            [
              -118.35969994379161,
              34.22158003310119
            ],
            [
              -118.35983994339549,
              34.22161003290318
            ],
            [
              -118.360259943637,
              34.22171003298133
            ],
            [
              -118.36056994397588,
              34.22176003295002
            ],
            [
              -118.36092994355302,
              34.22181003265757
            ],
            [
              -118.36163994343708,
              34.22186003338316
            ],
            [
              -118.36237994421792,
              34.22189003327543
            ],
            [
              -118.363649943208,
              34.22197003290472
            ],
            [
              -118.36439994249733,
              34.22200003277339
            ],
            [
              -118.36558994354158,
              34.2220700331101
            ],
            [
              -118.36655915464806,
              34.22211998608026
            ],
            [
              -118.36656394207725,
              34.22211408364139
            ],
            [
              -118.36663876530793,
              34.22202187316334
            ],
            [
              -118.36671359702792,
              34.22192965630194
            ],
            [
              -118.36689148130365,
              34.22171043943125
            ],
            [
              -118.36710112749726,
              34.22145207768088
            ],
            [
              -118.36805746423016,
              34.22027348389166
            ],
            [
              -118.36844542728831,
              34.21979535056445
            ],
            [
              -118.36873087010687,
              34.21944355246115
            ],
            [
              -118.36882713721731,
              34.21932490261018
            ],
            [
              -118.36903721828487,
              34.21906598349957
            ],
            [
              -118.36853495054733,
              34.21872393679098
            ],
            [
              -118.36797747595661,
              34.21834432929979
            ],
            [
              -118.36692844685476,
              34.217630023283455
            ],
            [
              -118.36723244699941,
              34.21732180591365
            ],
            [
              -118.3682493963599,
              34.21629076401576
            ],
            [
              -118.36825373057394,
              34.2162862882176
            ],
            [
              -118.36825743869278,
              34.21628232369317
            ],
            [
              -118.36826105974339,
              34.21627830263671
            ],
            [
              -118.36826460133021,
              34.21627422682827
            ],
            [
              -118.36826805481529,
              34.21627010621105
            ],
            [
              -118.36827141800028,
              34.21626593448097
            ],
            [
              -118.36827469848585,
              34.21626171251639
            ],
            [
              -118.36827789085768,
              34.216257443038536
            ],
            [
              -118.36828098644601,
              34.216253128778284
            ],
            [
              -118.3682839950377,
              34.21624877421354
            ],
            [
              -118.36828690792328,
              34.21624437306015
            ],
            [
              -118.368289732723,
              34.21623993070411
            ],
            [
              -118.36829246077508,
              34.21623545167946
            ],
            [
              -118.36829509529544,
              34.21623092696108
            ],
            [
              -118.36829763742489,
              34.216226369166975
            ],
            [
              -118.3683000763034,
              34.21622177652715
            ],
            [
              -118.36830242168597,
              34.216217146307336
            ],
            [
              -118.36830466708521,
              34.216212483936516
            ],
            [
              -118.36830682335724,
              34.21620779028312
            ],
            [
              -118.3683088731307,
              34.216203063597014
            ],
            [
              -118.36831082511506,
              34.2161983101624
            ],
            [
              -118.36831266953952,
              34.21619352910753
            ],
            [
              -118.3683144270232,
              34.2161887203696
            ],
            [
              -118.3683160769708,
              34.216183889420634
            ],
            [
              -118.36831762153295,
              34.216179031746286
            ],
            [
              -118.3683190661715,
              34.21617415544382
            ],
            [
              -118.36832041520344,
              34.21616925509084
            ],
            [
              -118.36832165021205,
              34.21616433795576
            ],
            [
              -118.36832278966178,
              34.216159407588485
            ],
            [
              -118.36832381618132,
              34.21615446223885
            ],
            [
              -118.3683247438546,
              34.216149496454726
            ],
            [
              -118.36832557164021,
              34.21614452015622
            ],
            [
              -118.36832628867005,
              34.21613952977032
            ],
            [
              -118.3683269058441,
              34.21613453608218
            ],
            [
              -118.36832741009195,
              34.21612952831322
            ],
            [
              -118.36832782316174,
              34.21612451631412
            ],
            [
              -118.36832812226794,
              34.21611950105572
            ],
            [
              -118.36832828745916,
              34.21611438793753
            ],
            [
              -118.36832799348151,
              34.215696160487745
            ],
            [
              -118.36925448579044,
              34.215697174470044
            ],
            [
              -118.37034606656678,
              34.21569835954042
            ],
            [
              -118.37034537850715,
              34.21523123661397
            ],
            [
              -118.37034339400076,
              34.21388501550275
            ],
            [
              -118.37034072226584,
              34.21207134330021
            ],
            [
              -118.37033834027451,
              34.210480075756756
            ],
            [
              -118.37033804933232,
              34.210257864029174
            ],
            [
              -118.37033667349692,
              34.20935129084788
            ],
            [
              -118.37033530006329,
              34.20844451841999
            ],
            [
              -118.3747195020902,
              34.20845001011785
            ],
            [
              -118.37688253465122,
              34.20845265667193
            ],
            [
              -118.37838298378264,
              34.208454460858825
            ],
            [
              -118.3790641803406,
              34.20845520714165
            ],
            [
              -118.3795445523196,
              34.20845584680285
            ],
            [
              -118.38015613441176,
              34.208456570902
            ],
            [
              -118.38124772251759,
              34.208457856542
            ],
            [
              -118.382339304138,
              34.20845913055077
            ],
            [
              -118.38342884248588,
              34.208460393974214
            ],
            [
              -118.38448675998318,
              34.20846161374892
            ],
            [
              -118.38557635915376,
              34.20846285583684
            ],
            [
              -118.38665144033031,
              34.20846407681096
            ],
            [
              -118.38718070512213,
              34.20846467233531
            ],
            [
              -118.38779264219268,
              34.208465360302846
            ],
            [
              -118.38998520750094,
              34.20846779424182
            ],
            [
              -118.39106938659661,
              34.20846898630024
            ],
            [
              -118.39216085813506,
              34.208470007071035
            ],
            [
              -118.39325285151486,
              34.20847122004665
            ],
            [
              -118.39434477767034,
              34.208472427893106
            ],
            [
              -118.39652884169003,
              34.20847481693415
            ],
            [
              -118.39652933887979,
              34.21028736245199
            ],
            [
              -118.39652984913444,
              34.212099912435235
            ],
            [
              -118.3965303459352,
              34.21391190981852
            ],
            [
              -118.39653063074998,
              34.215013086814395
            ],
            [
              -118.39653082148585,
              34.21572445540326
            ],
            [
              -118.39653101657503,
              34.21644039657684
            ],
            [
              -118.39653161656082,
              34.218712894605716
            ],
            [
              -118.39653178144924,
              34.219352085257505
            ],
            [
              -118.39653216168908,
              34.22072701928587
            ],
            [
              -118.39653238638319,
              34.22165258321392
            ],
            [
              -118.39770677716808,
              34.22165379574314
            ],
            [
              -118.39876535582951,
              34.221654889042235
            ],
            [
              -118.399823968184,
              34.221655977477205
            ],
            [
              -118.4008989882701,
              34.221657074415866
            ],
            [
              -118.40308206915802,
              34.221659166548385
            ],
            [
              -118.40342794220336,
              34.22165957268498
            ],
            [
              -118.40526532242588,
              34.22166138279859
            ],
            [
              -118.40601543350188,
              34.221661626971496
            ],
            [
              -118.40710874535648,
              34.221661981699384
            ],
            [
              -118.40800302085434,
              34.22166226305803
            ],
            [
              -118.40835983566247,
              34.22166237028154
            ],
            [
              -118.40927990021126,
              34.22166265253694
            ],
            [
              -118.4093509562378,
              34.22166267092528
            ],
            [
              -118.40966900829919,
              34.221662767476566
            ],
            [
              -118.40991147208298,
              34.2216628406964
            ],
            [
              -118.41004032390488,
              34.221662879251305
            ],
            [
              -118.41027770735505,
              34.221662946413865
            ],
            [
              -118.41032344106084,
              34.2216629626356
            ],
            [
              -118.41063032312672,
              34.22166304675464
            ],
            [
              -118.41065716600446,
              34.22166305753543
            ],
            [
              -118.41091882667318,
              34.221663133907285
            ],
            [
              -118.41143852525667,
              34.22166328284681
            ],
            [
              -118.41179519463614,
              34.22166337863179
            ],
            [
              -118.4138302348964,
              34.22166393420949
            ],
            [
              -118.41439910325646,
              34.221664082576005
            ],
            [
              -118.41541127445946,
              34.221664339022176
            ],
            [
              -118.4173156656545,
              34.22166479939835
            ],
            [
              -118.41924724459393,
              34.22166518248987
            ],
            [
              -118.42018042065254,
              34.22166535897441
            ],
            [
              -118.42220280228418,
              34.221665826715245
            ],
            [
              -118.42262867635623,
              34.22166593487475
            ],
            [
              -118.42276372327338,
              34.22117126754416
            ],
            [
              -118.42298785405126,
              34.220359171529196
            ],
            [
              -118.42315180990792,
              34.21975061317216
            ],
            [
              -118.42330126682201,
              34.219213229502074
            ],
            [
              -118.42384599785527,
              34.21737366476046
            ],
            [
              -118.42408645036062,
              34.21652029470842
            ],
            [
              -118.42441259071903,
              34.21528429905103
            ],
            [
              -118.4246870575532,
              34.21428996914896
            ],
            [
              -118.42496334494459,
              34.213334801363835
            ],
            [
              -118.4251780257668,
              34.21262371658959
            ],
            [
              -118.42545118964043,
              34.211704949242524
            ],
            [
              -118.42559908498293,
              34.211194368162296
            ],
            [
              -118.42587687966038,
              34.210214101285025
            ],
            [
              -118.4259986314533,
              34.20976472253205
            ],
            [
              -118.4262406149007,
              34.20890035379196
            ],
            [
              -118.42636413656018,
              34.20847469061536
            ],
            [
              -118.42668336628341,
              34.20741166688543
            ],
            [
              -118.42673588833017,
              34.20734712799341
            ],
            [
              -118.42702838434606,
              34.20739722854294
            ],
            [
              -118.42982283042959,
              34.20796644387111
            ],
            [
              -118.42994033652798,
              34.207989394247925
            ],
            [
              -118.430963387271,
              34.20818944001462
            ],
            [
              -118.43113883839757,
              34.20821629292857
            ],
            [
              -118.43138045584921,
              34.20825288161371
            ],
            [
              -118.4317174462654,
              34.20831749826667
            ],
            [
              -118.43180424843676,
              34.20833414104131
            ],
            [
              -118.4320906749553,
              34.208396328055144
            ],
            [
              -118.43241022995319,
              34.20847109146932
            ],
            [
              -118.4326088957854,
              34.20851332338408
            ],
            [
              -118.4340887710865,
              34.20878966455796
            ],
            [
              -118.43527736967403,
              34.209020012553054
            ],
            [
              -118.43559192917812,
              34.20908345681238
            ],
            [
              -118.436159783193,
              34.20920197118595
            ],
            [
              -118.43692800579454,
              34.20936888615105
            ],
            [
              -118.43759352807989,
              34.209505226009135
            ],
            [
              -118.43789151418213,
              34.20956219800106
            ],
            [
              -118.43859004273573,
              34.209687469139645
            ],
            [
              -118.43881851639203,
              34.2097316112852
            ],
            [
              -118.43958669499058,
              34.20989130716699
            ],
            [
              -118.43985154996106,
              34.2099425428187
            ],
            [
              -118.44036470076077,
              34.21003274590891
            ],
            [
              -118.44080670703529,
              34.21011562410465
            ],
            [
              -118.44099046530602,
              34.21015101334473
            ],
            [
              -118.44131993789104,
              34.21021852194437
            ],
            [
              -118.4435632295401,
              34.210673344773845
            ],
            [
              -118.44667068115209,
              34.21129152901949
            ],
            [
              -118.44869544168631,
              34.21169884281009
            ],
            [
              -118.44869513031553,
              34.21054018776623
            ],
            [
              -118.44872441001019,
              34.21040829029249
            ],
            [
              -118.44877761516966,
              34.21027639241984
            ],
            [
              -118.44877625853172,
              34.208462439941464
            ],
            [
              -118.44877511881148,
              34.207065842774554
            ],
            [
              -118.44877328099265,
              34.204825507954816
            ],
            [
              -118.44877180253675,
              34.203020150319574
            ],
            [
              -118.44877031461495,
              34.201197066652576
            ],
            [
              -118.44624941020174,
              34.20119828067831
            ],
            [
              -118.44546200459231,
              34.20119870971193
            ],
            [
              -118.44437204520379,
              34.201199295117235
            ],
            [
              -118.44321677853941,
              34.20119990623515
            ],
            [
              -118.44132646572311,
              34.201200879375826
            ],
            [
              -118.44061592722603,
              34.20120122091296
            ],
            [
              -118.44000355106972,
              34.2012015411716
            ],
            [
              -118.44000222654222,
              34.199351304951506
            ],
            [
              -118.4400020811146,
              34.198993761265186
            ],
            [
              -118.4400012857424,
              34.19800372514524
            ],
            [
              -118.44000093654752,
              34.19756425030161
            ],
            [
              -118.43999842813933,
              34.19393552642787
            ],
            [
              -118.44218168197688,
              34.19393455506985
            ],
            [
              -118.44327350210052,
              34.19393407419072
            ],
            [
              -118.44436540475203,
              34.19393359938144
            ],
            [
              -118.44545690267101,
              34.19393310809257
            ],
            [
              -118.44654839962713,
              34.193932632201474
            ],
            [
              -118.44654622270666,
              34.19067885929797
            ],
            [
              -118.44654556505608,
              34.18968950673815
            ],
            [
              -118.44654488645044,
              34.188672487814394
            ],
            [
              -118.44654420323181,
              34.18765582051508
            ],
            [
              -118.44436134028545,
              34.187656869778706
            ],
            [
              -118.44217771461699,
              34.187657877929276
            ],
            [
              -118.43999445345628,
              34.187658855249765
            ],
            [
              -118.43999410743457,
              34.1871093682785
            ],
            [
              -118.43999383444847,
              34.18666972279371
            ],
            [
              -118.43999362366503,
              34.18635372140096
            ],
            [
              -118.43999316983341,
              34.185680373239784
            ],
            [
              -118.43999254709556,
              34.184663134421974
            ],
            [
              -118.43999221430973,
              34.184401820853275
            ],
            [
              -118.43999192294919,
              34.183646449162644
            ],
            [
              -118.43999133033925,
              34.1826569623366
            ],
            [
              -118.43999100068987,
              34.182134055410835
            ],
            [
              -118.43999073773854,
              34.18166747461732
            ],
            [
              -118.4399901827354,
              34.181227003466304
            ],
            [
              -118.43999001513453,
              34.18083269242426
            ],
            [
              -118.43998949444702,
              34.18015920299577
            ],
            [
              -118.4399891597874,
              34.179400339829144
            ],
            [
              -118.43998868379518,
              34.1784747933885
            ],
            [
              -118.43998819927644,
              34.17756801613318
            ],
            [
              -118.43998814398518,
              34.177466071175566
            ],
            [
              -118.4399873805904,
              34.176661222972676
            ],
            [
              -118.43998690583956,
              34.175754442092575
            ],
            [
              -118.43998589869295,
              34.173939814949165
            ],
            [
              -118.43998494847222,
              34.17212651470123
            ],
            [
              -118.4388932930527,
              34.17212719712991
            ],
            [
              -118.4378016425454,
              34.17212756857246
            ],
            [
              -118.43671065583369,
              34.17212792866535
            ],
            [
              -118.4356187964524,
              34.172128581370366
            ],
            [
              -118.43452806571257,
              34.1721289244574
            ],
            [
              -118.43343672646607,
              34.17212925718317
            ],
            [
              -118.43234574129164,
              34.172129882613135
            ],
            [
              -118.43125284251445,
              34.172130240873976
            ],
            [
              -118.43016144815533,
              34.17213080027623
            ],
            [
              -118.4290701525165,
              34.17213135578945
            ],
            [
              -118.42797885813263,
              34.17213193751198
            ],
            [
              -118.42688751775252,
              34.1721322138444
            ],
            [
              -118.42579652706989,
              34.17213278021097
            ],
            [
              -118.42470591144333,
              34.17213329304576
            ],
            [
              -118.42252291020637,
              34.17213433325743
            ],
            [
              -118.4191967563318,
              34.172135315375264
            ],
            [
              -118.41815978853836,
              34.17213566614521
            ],
            [
              -118.41410985418985,
              34.17213690553342
            ],
            [
              -118.41373391891132,
              34.17213702024109
            ],
            [
              -118.41371489469368,
              34.172137168265465
            ],
            [
              -118.41359660682076,
              34.17128262705812
            ],
            [
              -118.41355876898174,
              34.17098531015822
            ],
            [
              -118.41332735658989,
              34.1693170773645
            ],
            [
              -118.41259794442612,
              34.163871870019086
            ],
            [
              -118.41250706221417,
              34.163205817233745
            ],
            [
              -118.41242511854419,
              34.16268159181924
            ],
            [
              -118.41236038416515,
              34.16229230037217
            ],
            [
              -118.41226298088019,
              34.16197527127062
            ],
            [
              -118.41212398018278,
              34.16160786348774
            ],
            [
              -118.4119885967381,
              34.16130363292817
            ],
            [
              -118.41171531001706,
              34.16085426354122
            ],
            [
              -118.41148561462283,
              34.16052840557559
            ],
            [
              -118.41124619452467,
              34.160237231769536
            ],
            [
              -118.41094376065098,
              34.15991024621139
            ],
            [
              -118.4105222021979,
              34.15955273714363
            ],
            [
              -118.4100495764564,
              34.15922595202847
            ],
            [
              -118.40974794439335,
              34.159059007211944
            ],
            [
              -118.40926913845824,
              34.15882054474552
            ],
            [
              -118.40894284617615,
              34.15867977280579
            ],
            [
              -118.40857035843526,
              34.15855258990749
            ],
            [
              -118.40815164570672,
              34.158438938926544
            ],
            [
              -118.4074782673107,
              34.15829143306968
            ],
            [
              -118.40693388682337,
              34.1581668653758
            ],
            [
              -118.40642100560038,
              34.15805903369644
            ],
            [
              -118.40608841530529,
              34.15797324110624
            ],
            [
              -118.40566467847772,
              34.15784516478931
            ],
            [
              -118.40534348630169,
              34.15773048000292
            ],
            [
              -118.40494582768267,
              34.157524688648245
            ],
            [
              -118.40457148179526,
              34.15735453781681
            ],
            [
              -118.40420849741342,
              34.157139363825905
            ],
            [
              -118.39961080343801,
              34.15337562386552
            ],
            [
              -118.3992541844071,
              34.15310440335925
            ],
            [
              -118.39893066607729,
              34.152844092992936
            ],
            [
              -118.39853603885085,
              34.152572664923206
            ],
            [
              -118.39821119341278,
              34.152379308795545
            ],
            [
              -118.39786318801535,
              34.15218054035678
            ],
            [
              -118.39756825148828,
              34.152015278768125
            ],
            [
              -118.3972385745761,
              34.15184666870623
            ],
            [
              -118.39685436947099,
              34.151680641143344
            ],
            [
              -118.39634439822433,
              34.15147829247347
            ],
            [
              -118.39533146885218,
              34.15114981329037
            ],
            [
              -118.39474087428898,
              34.15102052150952
            ],
            [
              -118.39426763553315,
              34.150900827834406
            ],
            [
              -118.3939301640414,
              34.15082463185608
            ],
            [
              -118.39358261041669,
              34.15072100152663
            ],
            [
              -118.39316542157363,
              34.15055850811659
            ],
            [
              -118.39274833399868,
              34.15037060762646
            ],
            [
              -118.39210586152905,
              34.15037048779398
            ],
            [
              -118.39103192306108,
              34.15037109094195
            ],
            [
              -118.3899604211915,
              34.15037168841157
            ],
            [
              -118.38888750313959,
              34.15037228274317
            ],
            [
              -118.38773192099258,
              34.150372902789236
            ],
            [
              -118.38772728412712,
              34.14855920467104
            ],
            [
              -118.38772263501066,
              34.14674586095864
            ],
            [
              -118.38771953016791,
              34.14553132939565
            ],
            [
              -118.38771868131084,
              34.14519993887208
            ],
            [
              -118.38761770063635,
              34.14453201468558
            ],
            [
              -118.38761266541604,
              34.14277256172478
            ],
            [
              -118.38761219357697,
              34.142607466597084
            ],
            [
              -118.38755956881269,
              34.14254422842453
            ],
            [
              -118.38751649413659,
              34.14249472608497
            ],
            [
              -118.38747238804645,
              34.14244585630871
            ],
            [
              -118.38742998672124,
              34.14240054572994
            ],
            [
              -118.38738113178327,
              34.1423500746841
            ],
            [
              -118.3873340099317,
              34.14230319069029
            ],
            [
              -118.38728591115743,
              34.14225699858218
            ],
            [
              -118.38723685069888,
              34.142211510931205
            ],
            [
              -118.38718684271865,
              34.142166742115435
            ],
            [
              -118.38713590246311,
              34.142122706509504
            ],
            [
              -118.38708404516643,
              34.14207941578341
            ],
            [
              -118.38703128824345,
              34.14203688430478
            ],
            [
              -118.386951453097,
              34.14197543598423
            ],
            [
              -118.38692313647827,
              34.14195415117931
            ],
            [
              -118.38686777427593,
              34.141913973767174
            ],
            [
              -118.38681157773524,
              34.14187460587487
            ],
            [
              -118.38675456317367,
              34.14183605916908
            ],
            [
              -118.38671563980367,
              34.1418106701946
            ],
            [
              -118.3866381506873,
              34.14176147776931
            ],
            [
              -118.38657878756129,
              34.14172546550014
            ],
            [
              -118.38651867818061,
              34.14169031926016
            ],
            [
              -118.38645784103488,
              34.14165605161076
            ],
            [
              -118.38639629351285,
              34.14162267151056
            ],
            [
              -118.3863340540955,
              34.141590189717945
            ],
            [
              -118.38627114234401,
              34.1415586160861
            ],
            [
              -118.38620757889933,
              34.14152795956351
            ],
            [
              -118.38613849194223,
              34.14149605849906
            ],
            [
              -118.38608577971151,
              34.141472640850985
            ],
            [
              -118.38601316207941,
              34.14144158942018
            ],
            [
              -118.38594718093933,
              34.14141469448034
            ],
            [
              -118.38588064480439,
              34.14138876141275
            ],
            [
              -118.38581357539107,
              34.14136379735961
            ],
            [
              -118.38574599116697,
              34.14133981037485
            ],
            [
              -118.38567791493273,
              34.14131680759718
            ],
            [
              -118.38414676309827,
              34.14081233163552
            ],
            [
              -118.38405868285871,
              34.140784047203795
            ],
            [
              -118.38397002307649,
              34.14075704563247
            ],
            [
              -118.38388080980694,
              34.14073133495136
            ],
            [
              -118.38379107126971,
              34.14070692228195
            ],
            [
              -118.38370083352004,
              34.14068381565415
            ],
            [
              -118.38361012477722,
              34.1406620221896
            ],
            [
              -118.38351897217224,
              34.14064154811189
            ],
            [
              -118.38342740392436,
              34.14062240054276
            ],
            [
              -118.3833354471559,
              34.140604583903105
            ],
            [
              -118.38324313116199,
              34.14058810350816
            ],
            [
              -118.38315048307724,
              34.14057296648349
            ],
            [
              -118.38305753218408,
              34.14055917544008
            ],
            [
              -118.3829643045246,
              34.14054673570398
            ],
            [
              -118.38287083155367,
              34.140535650781054
            ],
            [
              -118.38277713930084,
              34.140525923292905
            ],
            [
              -118.38268325705243,
              34.14051755675246
            ],
            [
              -118.38258921409471,
              34.140510554672645
            ],
            [
              -118.38249503753315,
              34.140504917868995
            ],
            [
              -118.38240075772981,
              34.140500648048075
            ],
            [
              -118.38230640287851,
              34.140497746923636
            ],
            [
              -118.38221200117282,
              34.14049621620933
            ],
            [
              -118.38211758187835,
              34.14049605491108
            ],
            [
              -118.38202317318466,
              34.14049726384122
            ],
            [
              -118.38192880436131,
              34.14049984290735
            ],
            [
              -118.3818345046698,
              34.14050379021394
            ],
            [
              -118.38174030121135,
              34.14050910567574
            ],
            [
              -118.3816462243316,
              34.14051578739391
            ],
            [
              -118.3815523022037,
              34.14052383257531
            ],
            [
              -118.38145856300912,
              34.14053324022973
            ],
            [
              -118.38136503491694,
              34.140544006662665
            ],
            [
              -118.38127174826472,
              34.140556128172754
            ],
            [
              -118.38117872905322,
              34.14056960107236
            ],
            [
              -118.38108600654009,
              34.140584422565276
            ],
            [
              -118.3809936099666,
              34.140600586249285
            ],
            [
              -118.38090156642191,
              34.14061808933512
            ],
            [
              -118.38080990514341,
              34.14063692451917
            ],
            [
              -118.38071865212801,
              34.140657087212794
            ],
            [
              -118.38061864592663,
              34.14068082494335
            ],
            [
              -118.37764000615363,
              34.14140976924219
            ],
            [
              -118.3775062405565,
              34.14144425248427
            ],
            [
              -118.37743464971818,
              34.14146434498256
            ],
            [
              -118.3773634907235,
              34.141485473758806
            ],
            [
              -118.3772927863068,
              34.14150763153057
            ],
            [
              -118.37722255812226,
              34.14153081192031
            ],
            [
              -118.37715282674,
              34.14155500855389
            ],
            [
              -118.3770836138021,
              34.14158021234932
            ],
            [
              -118.37701494096711,
              34.14160641783071
            ],
            [
              -118.37694682770483,
              34.1416336150214
            ],
            [
              -118.376879296746,
              34.141661795737576
            ],
            [
              -118.37681236649254,
              34.141690953612176
            ],
            [
              -118.37674605857502,
              34.14172107685873
            ],
            [
              -118.37668039355992,
              34.14175215820194
            ],
            [
              -118.37661539092163,
              34.141784188566774
            ],
            [
              -118.37655107012242,
              34.141817156173765
            ],
            [
              -118.3764874506368,
              34.141851051947924
            ],
            [
              -118.37642455302375,
              34.14188586681102
            ],
            [
              -118.37636239457326,
              34.14192158808882
            ],
            [
              -118.37630099584436,
              34.14195820670312
            ],
            [
              -118.3762403752117,
              34.141995709976335
            ],
            [
              -118.37492693464421,
              34.14282316826171
            ],
            [
              -118.3748814917619,
              34.14285128115642
            ],
            [
              -118.37483546469937,
              34.14287873051146
            ],
            [
              -118.37478886968071,
              34.14290550726036
            ],
            [
              -118.374741718601,
              34.14293160415338
            ],
            [
              -118.37469402768856,
              34.14295701302569
            ],
            [
              -118.37464580991892,
              34.142981725722706
            ],
            [
              -118.37459708152439,
              34.14300573498112
            ],
            [
              -118.3745478565649,
              34.14302903264298
            ],
            [
              -118.37449814911251,
              34.143051613254826
            ],
            [
              -118.37444797539575,
              34.14307346865202
            ],
            [
              -118.3743973516554,
              34.14309459337446
            ],
            [
              -118.37434629087129,
              34.143114980169
            ],
            [
              -118.37429481144875,
              34.143134622667475
            ],
            [
              -118.37424292637183,
              34.14315351451838
            ],
            [
              -118.3741906529698,
              34.14317165115989
            ],
            [
              -118.37413800639524,
              34.14318902623376
            ],
            [
              -118.37408500397751,
              34.14320563517828
            ],
            [
              -118.37403165978517,
              34.14322147163871
            ],
            [
              -118.37397799223994,
              34.14323653285299
            ],
            [
              -118.3739240164906,
              34.14325081156147
            ],
            [
              -118.37386974879458,
              34.14326430591055
            ],
            [
              -118.37381520647729,
              34.14327701043692
            ],
            [
              -118.37374624408321,
              34.1432918619025
            ],
            [
              -118.37194915467651,
              34.14366140500978
            ],
            [
              -118.3718869155396,
              34.143673625681366
            ],
            [
              -118.3718352134406,
              34.143682905556204
            ],
            [
              -118.37178332365863,
              34.14369143410479
            ],
            [
              -118.37173126352752,
              34.143699207667375
            ],
            [
              -118.3716790482244,
              34.143706225295674
            ],
            [
              -118.37162669400274,
              34.14371248423482
            ],
            [
              -118.37157421495156,
              34.1437179826382
            ],
            [
              -118.37152162949289,
              34.14372271774459
            ],
            [
              -118.37146895281204,
              34.14372669040864
            ],
            [
              -118.37141620007421,
              34.143729896977526
            ],
            [
              -118.37136338862932,
              34.143732337397815
            ],
            [
              -118.37131053365866,
              34.14373401162285
            ],
            [
              -118.37125765250809,
              34.14373491869775
            ],
            [
              -118.37120475927462,
              34.14373505857923
            ],
            [
              -118.37115187130414,
              34.143734430312456
            ],
            [
              -118.37109900486618,
              34.14373303474905
            ],
            [
              -118.37040040511198,
              34.143709514934734
            ],
            [
              -118.37020207189501,
              34.1437028371187
            ],
            [
              -118.36747514193574,
              34.143612466502894
            ],
            [
              -118.36745994399075,
              34.14358003395556
            ],
            [
              -118.36696994383577,
              34.14252003381624
            ],
            [
              -118.36659994414839,
              34.14169003292979
            ],
            [
              -118.36643994399749,
              34.14133003429648
            ],
            [
              -118.36626994415144,
              34.141020033393985
            ],
            [
              -118.36617994390896,
              34.140860033657745
            ],
            [
              -118.36595994326576,
              34.14054003337767
            ],
            [
              -118.36567994317001,
              34.14016003307435
            ],
            [
              -118.36551994307113,
              34.139940032789895
            ],
            [
              -118.36549994316594,
              34.13991003334335
            ],
            [
              -118.36542994356246,
              34.13985003317286
            ],
            [
              -118.36525994354139,
              34.13969003295526
            ],
            [
              -118.36487994345721,
              34.13936003280843
            ],
            [
              -118.36441994281644,
              34.13901003228499
            ],
            [
              -118.36310994455287,
              34.13808003346923
            ],
            [
              -118.36286994461315,
              34.13787003272482
            ],
            [
              -118.36284575487561,
              34.13784584410077
            ],
            [
              -118.36282794022847,
              34.13787683017045
            ],
            [
              -118.36268024958329,
              34.138133419551174
            ],
            [
              -118.36217390459197,
              34.13901310031828
            ],
            [
              -118.36205487901617,
              34.13896528869256
            ],
            [
              -118.36081858842344,
              34.141113021331904
            ],
            [
              -118.36079420780639,
              34.14206569843778
            ],
            [
              -118.36114782286796,
              34.14271720135385
            ],
            [
              -118.36116420005675,
              34.142747373717256
            ],
            [
              -118.36115688610539,
              34.14274725763225
            ],
            [
              -118.36108373681118,
              34.14274609137806
            ],
            [
              -118.3610053208361,
              34.142744844342545
            ],
            [
              -118.35942119885405,
              34.14270585794376
            ],
            [
              -118.35942091099855,
              34.142719603616115
            ],
            [
              -118.3594139199959,
              34.14305352535601
            ],
            [
              -118.35941391818409,
              34.14305360830269
            ],
            [
              -118.3594129445984,
              34.14310002406935
            ],
            [
              -118.35941278912097,
              34.143107489248976
            ],
            [
              -118.35917587152441,
              34.14309970179983
            ],
            [
              -118.35909450327408,
              34.143115484194645
            ],
            [
              -118.35690384205557,
              34.14316681014207
            ],
            [
              -118.35385014104278,
              34.14298943662068
            ],
            [
              -118.35356584880414,
              34.14290601627929
            ],
            [
              -118.35356581297762,
              34.142906005565685
            ],
            [
              -118.35350978514046,
              34.14290372444762
            ],
            [
              -118.3530695934074,
              34.142875627079974
            ],
            [
              -118.35296857972183,
              34.14286917856219
            ],
            [
              -118.35281589529136,
              34.14285463532219
            ],
            [
              -118.35276774121401,
              34.14284970831387
            ],
            [
              -118.3525982590695,
              34.14283076022766
            ],
            [
              -118.35242920144015,
              34.14280935578483
            ],
            [
              -118.35226061715908,
              34.14278550115567
            ],
            [
              -118.35209256048797,
              34.14275920429804
            ],
            [
              -118.35192508134767,
              34.14273047228103
            ],
            [
              -118.3517582307504,
              34.142699313974106
            ],
            [
              -118.3515920608002,
              34.14266574004684
            ],
            [
              -118.35140871786723,
              34.14262769551103
            ],
            [
              -118.35091502379625,
              34.142525248316254
            ],
            [
              -118.34750878931901,
              34.142140334949495
            ],
            [
              -118.34504979809893,
              34.1424510795525
            ],
            [
              -118.34510003342827,
              34.14256869382119
            ],
            [
              -118.34513093696049,
              34.14264105298973
            ],
            [
              -118.34514490960373,
              34.14267377309476
            ],
            [
              -118.34523237615565,
              34.14287856587132
            ],
            [
              -118.34553593104211,
              34.143590421936636
            ],
            [
              -118.34633363351428,
              34.145447589731404
            ],
            [
              -118.34947096164743,
              34.15278083421704
            ],
            [
              -118.34977691620095,
              34.15349537404017
            ],
            [
              -118.35105225252232,
              34.15647377007064
            ],
            [
              -118.35299985853683,
              34.161023731451166
            ],
            [
              -118.35311559630203,
              34.16129410495192
            ],
            [
              -118.3544270717322,
              34.161293793010856
            ],
            [
              -118.357162958118,
              34.161291441526
            ],
            [
              -118.35717022117836,
              34.16484451923543
            ],
            [
              -118.35594028352428,
              34.1648450210687
            ],
            [
              -118.3559123016292,
              34.16484524046316
            ],
            [
              -118.35588433122673,
              34.16484586641023
            ],
            [
              -118.35585637879298,
              34.16484689167845
            ],
            [
              -118.35582844110088,
              34.164848322588036
            ],
            [
              -118.35580054855187,
              34.16485016716347
            ],
            [
              -118.35577270760679,
              34.164852414567285
            ],
            [
              -118.35574490084345,
              34.16485504862316
            ],
            [
              -118.35571716531645,
              34.16485811159426
            ],
            [
              -118.35568948350759,
              34.16486156476615
            ],
            [
              -118.35566189013358,
              34.16486541074132
            ],
            [
              -118.35563437767898,
              34.1648696675727
            ],
            [
              -118.3556069634386,
              34.16487432168644
            ],
            [
              -118.3555796538811,
              34.16487936404818
            ],
            [
              -118.3555524436523,
              34.16488481090145
            ],
            [
              -118.35552535438153,
              34.1648906477581
            ],
            [
              -118.35549839364501,
              34.16489687098977
            ],
            [
              -118.35547157449517,
              34.164903489573575
            ],
            [
              -118.35544489802024,
              34.164910504407985
            ],
            [
              -118.35542668352112,
              34.16491552811475
            ],
            [
              -118.3546651878482,
              34.16491372504979
            ],
            [
              -118.35478761440277,
              34.16520026536144
            ],
            [
              -118.35599990889685,
              34.1680318516283
            ],
            [
              -118.35602649509005,
              34.16809429489383
            ],
            [
              -118.35608918763488,
              34.168240661324106
            ],
            [
              -118.35610555989103,
              34.168279619879726
            ],
            [
              -118.35624454675755,
              34.16860337859665
            ],
            [
              -118.35628882129025,
              34.16870704923693
            ],
            [
              -118.35635329752023,
              34.168857658317606
            ],
            [
              -118.35777038048701,
              34.17216686883188
            ],
            [
              -118.35886851687712,
              34.17943395326224
            ],
            [
              -118.35997371899006,
              34.186769495685375
            ],
            [
              -118.36104303244585,
              34.19385635528185
            ],
            [
              -118.36115232276396,
              34.19458701381699
            ],
            [
              -118.36116266607756,
              34.19465562502888
            ],
            [
              -118.3659605910207,
              34.19560445747365
            ],
            [
              -118.3659606740953,
              34.195521396840775
            ],
            [
              -118.3701602559271,
              34.19635152821437
            ],
            [
              -118.37015903622576,
              34.20100933663091
            ],
            [
              -118.37015899805262,
              34.20101125071047
            ],
            [
              -118.37015886870188,
              34.20101315695526
            ],
            [
              -118.37015853856175,
              34.20101602936038
            ],
            [
              -118.37015822038568,
              34.20101792897056
            ],
            [
              -118.37015780557893,
              34.20101981445187
            ],
            [
              -118.37015705417555,
              34.20102262593986
            ],
            [
              -118.37015613660827,
              34.20102540277634
            ],
            [
              -118.37015503761101,
              34.20102812787881
            ],
            [
              -118.37015377019989,
              34.201030800305894
            ],
            [
              -118.37015282965217,
              34.2010325539683
            ],
            [
              -118.37015181413017,
              34.20103428351863
            ],
            [
              -118.37015074306838,
              34.20103596726047
            ],
            [
              -118.37014957644494,
              34.201037633263965
            ],
            [
              -118.37014771225894,
              34.20104005959429
            ],
            [
              -118.37014570559565,
              34.20104240972981
            ],
            [
              -118.3701442767271,
              34.201043906145166
            ],
            [
              -118.37014280220377,
              34.2010453837679
            ],
            [
              -118.37014045922231,
              34.20104749872974
            ],
            [
              -118.37013799103597,
              34.20104951761012
            ],
            [
              -118.37013627371402,
              34.201050806652916
            ],
            [
              -118.37013450297829,
              34.201052039963784
            ],
            [
              -118.37013176340317,
              34.20105378470565
            ],
            [
              -118.37012986298264,
              34.201054890394985
            ],
            [
              -118.37012793624193,
              34.20105593305726
            ],
            [
              -118.3701249404363,
              34.20105739640186
            ],
            [
              -118.3701229034693,
              34.2010582951554
            ],
            [
              -118.37011979057957,
              34.201059536178434
            ],
            [
              -118.37011766392959,
              34.201060274732704
            ],
            [
              -118.37011549367904,
              34.20106096834343
            ],
            [
              -118.37011332094283,
              34.20106159074032
            ],
            [
              -118.37011000327244,
              34.20106240776577
            ],
            [
              -118.3701077636588,
              34.201062874401316
            ],
            [
              -118.370105499879,
              34.20106327439699
            ],
            [
              -118.37010322816049,
              34.20106359688477
            ],
            [
              -118.37010094101197,
              34.20106386532748
            ],
            [
              -118.37009863945855,
              34.20106406619891
            ],
            [
              -118.37009633542752,
              34.201064197659576
            ],
            [
              -118.37009288104356,
              34.201064280350224
            ],
            [
              -118.3659589371745,
              34.2010637596456
            ],
            [
              -118.36595891141243,
              34.2011324153527
            ],
            [
              -118.36213978744928,
              34.20113181749923
            ],
            [
              -118.36300519001958,
              34.20686458278085
            ],
            [
              -118.36183153835964,
              34.20684974953921
            ],
            [
              -118.3607395915572,
              34.20683340999087
            ],
            [
              -118.35964686256085,
              34.20681800862534
            ],
            [
              -118.35417623369521,
              34.2067329992978
            ],
            [
              -118.35363071990174,
              34.206726132299046
            ],
            [
              -118.35231630485794,
              34.20670520549258
            ],
            [
              -118.35067080707363,
              34.20667989190255
            ],
            [
              -118.3501394499141,
              34.20667319531749
            ],
            [
              -118.34886658464296,
              34.206653890414614
            ],
            [
              -118.3487869699015,
              34.206652736102946
            ],
            [
              -118.34433998194567,
              34.20658545058432
            ],
            [
              -118.34083152555846,
              34.20652311541105
            ],
            [
              -118.33994257198138,
              34.20650760375798
            ],
            [
              -118.33984687948082,
              34.210127826055185
            ],
            [
              -118.3398184507848,
              34.21119907754332
            ],
            [
              -118.33957941141394,
              34.21130548892094
            ],
            [
              -118.33774876514214,
              34.21127552793419
            ],
            [
              -118.3377444883088,
              34.21146785911084
            ],
            [
              -118.3377177874243,
              34.21259424133595
            ],
            [
              -118.3360437960119,
              34.21431425799678
            ],
            [
              -118.33642962680503,
              34.214573399705955
            ],
            [
              -118.33523051751136,
              34.21538758087607
            ],
            [
              -118.33455795456845,
              34.21562260206054
            ],
            [
              -118.33733140199489,
              34.22103826555708
            ]
          ]
        ]
      }
    }
  ]
}